1 31670U 99025CCC 16047.01911874  .00001585  00000-0  16722-2 0  9990
2 31670  98.4598 338.8681 0270802  78.0375 285.0988 13.61041845433764
1 31672U 99025CCE 16047.01031277  .00001406  00000-0  57268-3 0  9995
2 31672  98.8762 122.1066 0158973 339.7456  19.7460 14.22493488457186
1 31673U 99025CCF 16045.48150750 +.00000365 +00000-0 +15448-3 0  9990
2 31673 099.3050 302.0290 0131772 262.6555 095.9632 14.27637484136398
1 31674U 99025CCG 16044.04732141 +.00002631 +00000-0 +13520-2 0  9998
2 31674 098.8441 347.8742 0037692 203.7380 156.2056 14.15798256135093
1 31675U 99025CCH 16021.58751983  .00002983  00000-0  16676-2 0  9993
2 31675  98.4445 150.1242 0142646 244.2981 114.3402 14.06471338443986
1 31676U 99025CCJ 16032.37389498  .00000769  00000-0  10498-2 0  9997
2 31676  98.5847 239.3533 0417616 198.3675 158.9914 13.30675026422680
1 31678U 99025CCL 16046.73094025 +.00002914 +00000-0 +65292-3 0  9990
2 31678 098.8903 009.9481 0354082 080.0503 038.0416 14.25191857455125
1 31679U 99025CCM 16047.15797506  .00002582  00000-0  79852-3 0  9990
2 31679  98.9152 177.2799 0074410 348.8519  11.1017 14.40607746456957
1 31680U 99025CCN 16046.64923329 +.00002650 +00000-0 +32747-3 0  9997
2 31680 099.8563 002.5721 0184922 147.3043 213.9766 14.72624178470596
1 31682U 99025CCQ 16046.19540735  .00010909  00000-0  28396-2 0  9995
2 31682  98.7451  55.1883 0040597 332.0414  27.8598 14.49267041455010
1 31683U 99025CCR 16046.13233756  .00004420  00000-0  13987-2 0  9993
2 31683  98.7237  27.0598 0074545 283.2640  76.0240 14.39072582455925
1 31685U 99025CCT 16046.50967088 -.00000047  00000-0 -71376-6 0  9991
2 31685  99.0808  54.3857 0016019 230.0352 284.1833 14.08749127449945
1 31686U 99025CCU 16046.36246678 +.00003310 +00000-0 +41890-3 0  9990
2 31686 098.5788 104.5518 0398314 228.2259 194.4712 14.39612977459288
1 31688U 99025CCW 16046.76319536 +.00000456 +00000-0 +32789-3 0  9995
2 31688 099.2457 032.2834 0070039 313.4241 169.5023 14.01134527450196
1 31690U 99025CCY 16046.36275132 +.00004883 +00000-0 +15882-2 0  9999
2 31690 098.8355 109.4626 0033920 174.1532 186.0057 14.38916138457688
1 31691U 99025CCZ 16047.30964285  .00001617  00000-0  96519-3 0  9998
2 31691  99.0910  81.8347 0075588 276.1650  83.0910 14.07284396451163
1 31692U 99025CDA 16047.30894566  .00001320  00000-0  99209-3 0  9993
2 31692  99.1462 356.6289 0117152 213.4018 145.9713 13.93024568452023
1 31695U 99025CDD 16047.32392798  .00002899  00000-0  59607-3 0  9998
2 31695  98.6596  81.6556 0270361 335.9142  22.9593 14.40943498464691
1 31696U 99025CDE 16047.32448245  .00000765  00000-0  64581-3 0  9995
2 31696  97.7785 235.7309 0155800 263.1059  95.2355 13.84772740448710
1 31698U 07026A   16047.55302481  .00000115  00000-0  86814-5 0  9997
2 31698  97.4470  56.1470 0001643  88.5125  25.0290 15.19150425480997
1 31699U 07026B   16046.91684730 +.00000281 +00000-0 +49198-4 0  9994
2 31699 097.4382 063.0284 0351422 161.0761 263.2699 14.40913313455498
1 31709U 99025CDG 16046.09060491  .00002811  00000-0  16190-2 0  9992
2 31709  98.0357 358.5908 0192390 148.0868 213.2126 14.00944531433908
1 31710U 99025CDH 16046.94191509 +.00010864 +00000-0 +77909-3 0  9996
2 31710 098.9886 049.1963 0117932 140.6606 220.3254 14.99063216468355
1 31711U 99025CDJ 16046.23871485  .00016785  00000-0  19958-2 0  9994
2 31711  99.0317 313.0427 0076015 199.6037 313.7706 14.82414456462174
1 31714U 99025CDM 16046.11150009 +.00003193 +00000-0 +15276-2 0  9994
2 31714 099.0501 110.9316 0058944 275.7800 115.9843 14.18922101447243
1 31715U 99025CDN 16044.85299699 +.00001152 +00000-0 +32865-3 0  9990
2 31715 099.2814 275.3674 0245407 122.5049 240.0105 14.31202853102050
1 31716U 99025CDP 16046.24686205  .00001003  00000-0  75019-3 0  9992
2 31716  98.5595 161.1957 0145222 346.1610  42.4034 13.91951172441542
1 31717U 99025CDQ 16046.89950497 +.00002238 +00000-0 +14938-2 0  9994
2 31717 096.9300 298.1770 0213770 010.0435 350.4902 13.91220383445441
1 31719U 99025CDS 16046.36749634  .00002039  00000-0  17593-2 0  9996
2 31719  97.5513  92.5724 0211033  43.6715 318.0926 13.77601636440757
1 31720U 99025CDT 16044.69814679 +.00001196 +00000-0 +27847-3 0  9991
2 31720 099.0457 314.8213 0136780 171.0634 189.3041 14.51418642459974
1 31721U 99025CDU 16046.06526713 +.00000475 +00000-0 +40203-3 0  9994
2 31721 099.4651 336.7403 0329779 105.7535 313.6535 13.69778242182151
1 31722U 99025CDV 16046.87344661  .00005665  00000-0  18359-2 0  9996
2 31722 101.9632 186.4631 0017675  40.3229 113.4617 14.39488548453339
1 31723U 99025CDW 16046.35100588  .00001696  00000-0  12310-2 0  9999
2 31723  97.8220 261.2118 0143874 277.3198  81.1633 13.92685345440962
1 31724U 99025CDX 16046.86690967 +.00004719 +00000-0 +20319-2 0  9998
2 31724 097.8961 020.8167 0218800 045.6711 316.2171 14.12947499135242
1 31726U 99025CDZ 16046.34950325 +.00000915 +00000-0 +46857-3 0  9990
2 31726 099.1203 081.6672 0259147 315.4477 098.4054 14.02219963136562
1 31727U 99025CEA 16046.59656451 +.00001514 +00000-0 +81459-3 0  9994
2 31727 098.9881 090.8774 0049041 168.2019 346.2603 14.13793745207709
1 31729U 99025CEC 16046.38234323 +.00002410 +00000-0 +15655-2 0  9993
2 31729 099.2711 109.5469 0089725 152.5801 208.0139 14.01603433131788
1 31731U 99025CEE 16047.40588112  .00002191  00000-0  11026-2 0  9992
2 31731  99.3133 203.4916 0015534 209.9092 177.5101 14.17482962448821
1 31732U 99025CEF 16046.40439408 +.00000309 +00000-0 +20207-3 0  9996
2 31732 098.9542 120.0812 0040836 314.8242 044.9611 14.09150659137617
1 31733U 99025CEG 16045.91383727 +.00010433 +00000-0 +13756-2 0  9993
2 31733 099.1165 031.0658 0127781 003.6823 025.8703 14.74718661462014
1 31734U 99025CEH 16046.88495065 +.00000397 +00000-0 +17994-3 0  9997
2 31734 098.7063 083.7282 0111804 046.2546 314.7822 14.23939948453444
1 31735U 99025CEJ 16047.43946909  .00000645  00000-0  25806-3 0  9995
2 31735  98.6984 121.1765 0071949  77.9792 339.5184 14.30332116453468
1 31736U 99025CEK 16046.27842742  .00000130  00000-0  94185-4 0  9993
2 31736  98.9341  69.6579 0012144   6.9441  51.3899 14.12599868450449
1 31737U 99025CEL 16047.13911624  .00001014  00000-0  20544-3 0  9995
2 31737  98.3413 115.4487 0187585   8.5900  21.4814 14.53049802460003
1 31738U 99025CEM 16047.23903133  .00001185  00000-0  86836-3 0  9998
2 31738  99.6494  60.2145 0338156 142.7092 219.8058 13.73820189438093
1 31739U 99025CEN 16046.74318436 +.00000097 +00000-0 +64651-4 0  9993
2 31739 098.9626 024.6346 0128595 236.4765 248.8365 14.17923701446266
1 31740U 99025CEP 16046.30733888 +.00001162 +00000-0 +51687-3 0  9997
2 31740 099.8318 083.0409 0032162 120.4363 299.5579 14.24954146138257
1 31741U 99025CEQ 16046.08033547  .00001614  00000-0  65138-3 0  9996
2 31741  99.0525 159.2503 0205775 234.7224 123.4549 14.18582296450994
1 31742U 99025CER 16046.19596437 +.00000858 +00000-0 +33836-3 0  9990
2 31742 098.7650 138.8109 0088087 029.7152 330.8992 14.29562828452823
1 31743U 99025CES 16046.52117046 +.00001455 +00000-0 +78260-3 0  9997
2 31743 099.1428 156.0032 0039971 310.6350 105.3363 14.14146359447696
1 31744U 99025CET 16046.17452513 +.00001829 +00000-0 +80211-3 0  9994
2 31744 099.4678 046.7418 0413201 049.2403 314.3857 13.87697772446290
1 31746U 99025CEV 16047.07583794  .00001989  00000-0  78067-3 0  9995
2 31746  98.7625  97.3622 0047011  77.4133 313.3763 14.29893880454929
1 31751U 99025CFA 16040.39905022  .00004627  00000-0  16338-2 0  9995
2 31751  98.8761  98.9410 0065435 279.8684  79.5117 14.33996050454492
1 31752U 99025CFB 16044.74947375  .00001409  00000-0  77914-3 0  9999
2 31752  98.8651 233.9189 0406816 273.5805  81.8919 13.78187955440094
1 31753U 99025CFC 16046.96778609 +.00000451 +00000-0 +22394-3 0  9996
2 31753 098.9967 053.8983 0164650 331.5852 056.9692 14.15388003452342
1 31754U 99025CFD 16046.15116789 +.00001497 +00000-0 +61211-3 0  9995
2 31754 099.0205 177.0172 0062768 200.4091 159.4579 14.27789528456599
1 31755U 99025CFE 16047.34100988  .00000235  00000-0  14656-3 0  9992
2 31755  98.9852  81.7006 0196441   9.0234  45.0778 14.04803821458299
1 31756U 99025CFF 16042.30886365 +.00001761 +00000-0 +82370-3 0  9997
2 31756 099.4065 238.2832 0063211 334.1338 025.6681 14.20671119094893
1 31757U 99025CFG 16046.81187500 +.00000600 +00000-0 +32571-3 0  9992
2 31757 099.1285 061.5982 0227045 021.6229 339.4341 14.03798071135008
1 31758U 99025CFH 16047.07034089  .00009924  00000-0  26598-2 0  9994
2 31758  98.1785 354.2267 0490751 315.3308  40.9286 13.95102928440672
1 31759U 99025CFJ 16046.74929490 +.00010527 +00000-0 +31147-2 0  9994
2 31759 098.5842 021.2519 0005766 322.0182 159.8657 14.43585712194741
1 31760U 99025CFK 16046.41389875  .00000634  00000-0  30067-3 0  9996
2 31760  99.3423 249.0534 0058273 351.2138   8.8012 14.22598906452459
1 31761U 99025CFL 16046.16667008 +.00002296 +00000-0 +70112-3 0  9997
2 31761 098.7312 121.4711 0582309 303.6834 051.0081 13.74775979085604
1 31763U 99025CFN 16044.88511841  .00000628  00000-0  43841-3 0  9995
2 31763  98.5035 282.2224 0576645 284.7382 131.0229 13.42196597429067
1 31765U 99025CFQ 16047.49328904  .00004509  00000-0  27851-2 0  9997
2 31765  98.9640 240.7182 0282634  56.8380 334.2716 13.87898590438019
1 31766U 99025CFR 16046.30952664 -.00000132 +00000-0 -53904-4 0  9993
2 31766 099.0393 072.3558 0074906 231.1031 128.3439 14.03906627137217
1 31767U 99025CFS 16046.99236356  .00000015  00000-0  38431-4 0  9998
2 31767  99.1697  52.5147 0040880 319.1393  68.5261 14.03431858446256
1 31768U 99025CFT 16047.26988578  .00003279  00000-0  11564-2 0  9991
2 31768  99.0823 202.4616 0058106 165.3502 315.0181 14.34531322452649
1 31769U 99025CFU 16033.17971582  .00002082  00000-0  12599-2 0  9994
2 31769  98.4919 179.5417 0104749 330.4255  29.1015 14.04807882448195
1 31770U 99025CFV 16019.62914558  .00013245  00000-0  33376-2 0  9999
2 31770  97.7030 326.5156 0154641 308.4269 176.8943 14.44239962451504
1 31771U 99025CFW 16042.93960653  .00004566  00000-0  16758-2 0  9998
2 31771 102.8059  87.6554 0035646 184.4578 175.6277 14.33255715453746
